STARLINK-2604           
1 48374U 21038X   26068.03940903 -.00013185  00000+0 -43406-3 0  9999
2 48374  53.1609 350.8195 0001104  77.5894 282.5231 15.30183966267122
HAWK-11A                
1 62382U 24247F   26068.51231358  .00009457  00000+0  34106-3 0  9991
2 62382  44.9941 114.3328 0005466 327.3713  32.6832 15.28849427 67741
